ARCSTONE                
1 64540U 25135N   26068.88991918  .00026427  00000+0  94900-3 0  9995
2 64540  97.4495 185.9194 0004120 166.7863 193.3485 15.28638458 39847
STARLINK-35790          
1 67055U 25294AB  26068.27412335  .00024380  00000+0  89207-3 0  9999
2 67055  43.0018  40.5866 0001093 244.0498 116.0241 15.27597489 14731
